      2.10          N: GNSS NAV DATA                        RINEX VERSION / TYPE
fic2rin                                 10/01/2019 00:19:05 PGM / RUN BY / DATE
                                                            END OF HEADER
23 19  9 30  6  0  0.0-1.641116105020e-04 2.046363078989e-12 0.000000000000e+00
    1.170000000000e+02-1.668750000000e+01 4.598405827775e-09-8.952371307685e-01
   -6.835907697678e-07 1.323545526247e-02 1.231208443642e-05 5.153760858536e+03
    1.080000000000e+05 1.210719347000e-07 3.117669343579e+00 3.203749656677e-07
    9.438942191086e-01 1.337812500000e+02-2.226475244397e+00-8.206056100889e-09
   -2.485817830005e-10 1.000000000000e+00 2.073000000000e+03 0.000000000000e+00
    2.400000000000e+00 0.000000000000e+00-2.002343535423e-08 1.170000000000e+02
    1.008000000000e+05 4.000000000000e+00
21 19  9 30  6  0  0.0-1.103202812374e-04 6.366462912410e-12 0.000000000000e+00
    8.200000000000e+01 7.753125000000e+01 4.655908222980e-09 2.753797301088e+00
    3.997236490250e-06 2.450049517211e-02 9.424984455109e-06 5.153650207520e+03
    1.080000000000e+05 4.023313522339e-07 9.824112838876e-01-6.519258022308e-08
    9.498968440906e-01 1.836875000000e+02-1.408869065486e+00-7.818539959286e-09
    4.378753821244e-10 1.000000000000e+00 2.073000000000e+03 0.000000000000e+00
    3.400000000000e+00 0.000000000000e+00-1.024454832077e-08 8.200000000000e+01
    1.008000000000e+05 4.000000000000e+00
26 19  9 30  6  0  0.0 5.062250420451e-05 8.640199666843e-12 0.000000000000e+00
    9.600000000000e+01-4.056250000000e+01 5.427368928844e-09 2.403474094869e+00
   -2.037733793259e-06 3.950543468818e-03 2.039596438408e-06 5.153670001984e+03
    1.080000000000e+05-8.940696716309e-08-1.078012785800e+00 8.940696716309e-08
    9.496229302353e-01 3.345625000000e+02 1.213980902263e-01-8.756079011551e-09
   -1.642925577302e-10 1.000000000000e+00 2.073000000000e+03 0.000000000000e+00
    3.400000000000e+00 0.000000000000e+00 7.450580596924e-09 9.600000000000e+01
    1.008000000000e+05 4.000000000000e+00
20 19  9 30  6  0  0.0 5.270447582006e-04 1.136868377216e-13 0.000000000000e+00
    9.700000000000e+01-1.693750000000e+01 5.675950711844e-09-2.069332747786e+00
   -7.301568984985e-07 4.905957728624e-03 3.442168235779e-06 5.153612016678e+03
    1.080000000000e+05-8.195638656616e-08 1.966420937439e+00 6.332993507385e-08
    9.314589838740e-01 2.985625000000e+02 2.438969793476e+00-8.846082760569e-09
   -8.893227581482e-11 1.000000000000e+00 2.073000000000e+03 0.000000000000e+00
    2.400000000000e+00 0.000000000000e+00-8.847564458847e-09 9.700000000000e+01
    1.008000000000e+05 4.000000000000e+00
28 19  9 30  6  0  0.0 7.606479339302e-04-1.250555214938e-12 0.000000000000e+00
    6.100000000000e+01-7.681250000000e+01 4.604834666990e-09 1.301327619736e+00
   -4.380941390991e-06 1.910127489828e-02 3.928318619728e-06 5.153702627182e+03
    1.080000000000e+05-8.940696716309e-08-9.584224351472e-01-5.085021257401e-07
    9.803776653735e-01 3.176250000000e+02-1.455516793420e+00-8.418922110470e-09
   -3.339424814733e-10 1.000000000000e+00 2.073000000000e+03 0.000000000000e+00
    4.850000000000e+00 0.000000000000e+00-1.117587089539e-08 6.100000000000e+01
    1.008000000000e+05 4.000000000000e+00
26 19  9 30  5 59 44.0 5.062157288194e-05 8.640199666843e-12 0.000000000000e+00
    1.700000000000e+01-4.056250000000e+01 5.427726086578e-09 2.401140815141e+00
   -2.037733793259e-06 3.950549755245e-03 2.039596438408e-06 5.153670007706e+03
    1.079840000000e+05-8.940696716309e-08-1.078012648285e+00 8.940696716309e-08
    9.496229346241e-01 3.345625000000e+02 1.213975635758e-01-8.756079011551e-09
   -1.639353999960e-10 1.000000000000e+00 2.073000000000e+03 0.000000000000e+00
    2.400000000000e+00 0.000000000000e+00 7.450580596924e-09 1.700000000000e+01
    1.038000000000e+05 4.000000000000e+00
11 19  9 30  5 59 44.0-4.923497326672e-04 1.125499693444e-11 0.000000000000e+00
    0.000000000000e+00 5.143750000000e+01 5.287720254773e-09-2.455295600826e+00
    2.697110176086e-06 1.662540435791e-02 1.229904592037e-05 5.153738248825e+03
    1.079840000000e+05 1.285225152969e-07 5.911578124843e-01 2.291053533554e-07
    9.108277895991e-01 1.142500000000e+02 1.951776284825e+00-8.172126116141e-09
    2.867976605595e-10 1.000000000000e+00 2.073000000000e+03 0.000000000000e+00
    2.400000000000e+00 0.000000000000e+00-1.210719347000e-08 0.000000000000e+00
    1.071000000000e+05 4.000000000000e+00
21 19  9 30  5 59 44.0-1.103202812374e-04 6.366462912410e-12 0.000000000000e+00
    4.000000000000e+00 7.753125000000e+01 4.655908222980e-09 2.751463496173e+00
    3.997236490250e-06 2.450049482286e-02 9.424984455109e-06 5.153650209427e+03
    1.079840000000e+05 4.023313522339e-07 9.824114082356e-01-6.519258022308e-08
    9.498968382390e-01 1.836875000000e+02-1.408869017210e+00-7.818539959286e-09
    4.378753821244e-10 1.000000000000e+00 2.073000000000e+03 0.000000000000e+00
    2.400000000000e+00 0.000000000000e+00-1.024454832077e-08 4.000000000000e+00
    1.073100000000e+05 4.000000000000e+00
14 19  9 30  7 59 44.0-5.865935236216e-05 1.932676241267e-12 0.000000000000e+00
    6.000000000000e+00-2.468750000000e+01 4.137315192927e-09 1.274493677675e+00
   -1.193955540657e-06 1.076421944890e-02 1.389160752296e-05 5.153761358261e+03
    1.151840000000e+05-2.048909664154e-07-3.065439683479e+00-9.499490261078e-08
    9.610131826050e-01 1.113437500000e+02-1.930484353359e+00-8.009262189347e-09
   -3.192990143713e-10 1.000000000000e+00 2.073000000000e+03 0.000000000000e+00
    2.400000000000e+00 0.000000000000e+00-9.778887033463e-09 6.000000000000e+00
    1.080000000000e+05 4.000000000000e+00
21 19  9 30  7 59 44.0-1.102746464312e-04 6.366462912410e-12 0.000000000000e+00
    5.000000000000e+00 8.643750000000e+01 4.676623371564e-09-2.481549781138e+00
    4.421919584274e-06 2.450096979737e-02 9.581446647644e-06 5.153649223328e+03
    1.151840000000e+05 2.905726432800e-07 9.823542198420e-01 1.955777406693e-07
    9.499009900005e-01 1.828437500000e+02-1.408844453352e+00-7.782824185867e-09
    6.332406627297e-10 1.000000000000e+00 2.073000000000e+03 0.000000000000e+00
    2.400000000000e+00 0.000000000000e+00-1.024454832077e-08 5.000000000000e+00
    1.080000000000e+05 4.000000000000e+00
11 19  9 30  7 59 44.0-4.922687076032e-04 1.125499693444e-11 0.000000000000e+00
    5.000000000000e+01 4.078125000000e+01 5.518086993329e-09-1.405151723352e+00
    2.177432179451e-06 1.662463846151e-02 1.246109604836e-05 5.153738672256e+03
    1.151840000000e+05-3.743916749954e-07 5.910972666938e-01 1.676380634308e-07
    9.108277705812e-01 1.158750000000e+02 1.951779100942e+00-8.654289057305e-09
    3.053698627377e-10 1.000000000000e+00 2.073000000000e+03 0.000000000000e+00
    2.400000000000e+00 0.000000000000e+00-1.210719347000e-08 5.000000000000e+01
    1.080000000000e+05 4.000000000000e+00
26 19  9 30  7 59 44.0 5.068397149444e-05 8.640199666843e-12 0.000000000000e+00
    1.800000000000e+01-3.918750000000e+01 5.394867575032e-09-2.831820815309e+00
   -1.983717083931e-06 3.950846730731e-03 2.283602952957e-06 5.153669395447e+03
    1.151840000000e+05-1.005828380585e-07-1.078075653241e+00 3.725290298462e-09
    9.496218959522e-01 3.326562500000e+02 1.213637847974e-01-8.742507017652e-09
   -1.428630936784e-10 1.000000000000e+00 2.073000000000e+03 0.000000000000e+00
    2.400000000000e+00 0.000000000000e+00 7.450580596924e-09 1.800000000000e+01
    1.080000000000e+05 4.000000000000e+00
 2 19  9 30  8  0  0.0-3.159018233418e-04-8.071765478235e-12 0.000000000000e+00
    2.100000000000e+01 7.493750000000e+01 4.927348100969e-09-3.573130010064e-01
    3.993511199951e-06 1.917761215009e-02 9.289011359215e-06 5.153541822433e+03
    1.152000000000e+05-1.993030309677e-07 9.786880066953e-01 2.384185791016e-07
    9.560793948301e-01 2.050312500000e+02-1.711806582061e+00-8.637859801532e-09
    5.725238479163e-10 1.000000000000e+00 2.073000000000e+03 0.000000000000e+00
    2.400000000000e+00 0.000000000000e+00-2.048909664154e-08 2.100000000000e+01
    1.080000000000e+05 4.000000000000e+00
 1 19  9 30  8  0  0.0-1.459978520870e-04-1.307398633799e-11 0.000000000000e+00
    1.540000000000e+02 6.693750000000e+01 4.321608583773e-09-6.343609344906e-01
    3.481283783913e-06 9.102498646826e-03 8.618459105492e-06 5.153645483017e+03
    1.152000000000e+05 5.215406417847e-08 1.050026820620e+00 1.192092895508e-07
    9.769458029255e-01 2.217500000000e+02 7.649361936343e-01-8.106766250783e-09
    4.464471677451e-10 1.000000000000e+00 2.073000000000e+03 0.000000000000e+00
    2.400000000000e+00 0.000000000000e+00 5.587935447693e-09 1.540000000000e+02
    1.080000000000e+05 4.000000000000e+00
 3 19  9 30  8  0  0.0-1.662410795689e-05-4.433786671143e-12 0.000000000000e+00
    9.900000000000e+01-4.165625000000e+01 4.871988652169e-09-1.767039667106e+00
   -2.097338438034e-06 2.560905064456e-03 3.939494490623e-06 5.153695161819e+03
    1.152000000000e+05 4.097819328308e-08 2.092329499614e+00-4.842877388000e-08
    9.635911105118e-01 3.069375000000e+02 7.597460236143e-01-8.405707274305e-09
   -3.100129132822e-10 1.000000000000e+00 2.073000000000e+03 0.000000000000e+00
    2.400000000000e+00 0.000000000000e+00 1.862645149231e-09 9.900000000000e+01
    1.080000000000e+05 4.000000000000e+00
10 19  9 30  8  0  0.0-7.461337372661e-05-1.568878360558e-11 0.000000000000e+00
    3.800000000000e+01-3.796875000000e+01 4.886274961537e-09-2.613879064429e+00
   -1.965090632439e-06 4.866707487963e-03 4.317611455917e-06 5.153653163910e+03
    1.152000000000e+05-2.235174179077e-08 2.089157214424e+00-3.725290298462e-09
    9.635840841163e-01 2.979062500000e+02-2.739606036045e+00-8.346061932694e-09
   -2.567964108870e-10 1.000000000000e+00 2.073000000000e+03 0.000000000000e+00
    2.400000000000e+00 0.000000000000e+00 1.862645149231e-09 3.800000000000e+01
    1.080000000000e+05 4.000000000000e+00
